start=new Date('2022-01-10T00:00:00.000Z').valueOf();
sats=[{"SEMIMAJOR_AXIS":"6925.362","REF_FRAME":"TEME","CLASSIFICATION_TYPE":"U","TLE_LINE2":"2 45576  53.0548  59.4359 0001214  71.2679 288.8441 15.06395653 96440","COUNTRY_CODE":"US","DECAY_DATE":null,"MEAN_MOTION_DOT":"-0.00000386","CENTER_NAME":"EARTH","RCS_SIZE":"LARGE","PERIOD":"95.592","OBJECT_ID":"2020-025AX","EPOCH":"2022-01-09T20:25:42.974976","ARG_OF_PERICENTER":"71.2679","OBJECT_TYPE":"PAYLOAD","APOAPSIS":"548.068","MEAN_ANOMALY":"288.8441","ELEMENT_SET_NO":"999","FILE":"3268323","TIME_SYSTEM":"UTC","OBJECT_NAME":"STARLINK-1328","MEAN_MOTION_DDOT":"0.0000000000000","RA_OF_ASC_NODE":"59.4359","REV_AT_EPOCH":"9644","BSTAR":"-0.00000703640000","NORAD_CAT_ID":"45576","MEAN_ELEMENT_THEORY":"SGP4","SITE":"AFETR","INCLINATION":"53.0548","ECCENTRICITY":"0.00012140","GP_ID":"193557168","LAUNCH_DATE":"2020-04-22","EPHEMERIS_TYPE":"0","MEAN_MOTION":"15.06395653","TLE_LINE1":"1 45576U 20025AX  22009.85119184 -.00000386  00000-0 -70364-5 0  9990","PERIAPSIS":"546.386"},{"LAUNCH_DATE":"2020-04-22","GP_ID":"193524833","ECCENTRICITY":"0.00013970","MEAN_ELEMENT_THEORY":"SGP4","SITE":"AFETR","INCLINATION":"53.0540","PERIAPSIS":"546.259","TLE_LINE1":"1 45577U 20025AY  22009.54157269  .00001584  00000-0  12524-3 0  9994","EPHEMERIS_TYPE":"0","MEAN_MOTION":"15.06395896","RA_OF_ASC_NODE":"60.8286","MEAN_MOTION_DDOT":"0.0000000000000","OBJECT_NAME":"STARLINK-1330","FILE":"3268062","ELEMENT_SET_NO":"999","TIME_SYSTEM":"UTC","BSTAR":"0.00012524000000","NORAD_CAT_ID":"45577","REV_AT_EPOCH":"9638","OBJECT_ID":"2020-025AY","PERIOD":"95.592","RCS_SIZE":"LARGE","CENTER_NAME":"EARTH","DECAY_DATE":null,"MEAN_MOTION_DOT":"0.00001584","MEAN_ANOMALY":"288.5836","OBJECT_TYPE":"PAYLOAD","APOAPSIS":"548.194","ARG_OF_PERICENTER":"71.5305","EPOCH":"2022-01-09T12:59:51.880416","CLASSIFICATION_TYPE":"U","SEMIMAJOR_AXIS":"6925.361","REF_FRAME":"TEME","COUNTRY_CODE":"US","TLE_LINE2":"2 45577  53.0540  60.8286 0001397  71.5305 288.5836 15.06395896 96386"},{"OBJECT_ID":"2020-025AZ","CENTER_NAME":"EARTH","RCS_SIZE":"LARGE","PERIOD":"95.592","DECAY_DATE":null,"MEAN_MOTION_DOT":"-0.00000115","MEAN_ANOMALY":"286.1969","APOAPSIS":"547.998","OBJECT_TYPE":"PAYLOAD","ARG_OF_PERICENTER":"73.9143","EPOCH":"2022-01-09T20:15:05.843232","CLASSIFICATION_TYPE":"U","REF_FRAME":"TEME","SEMIMAJOR_AXIS":"6925.356","COUNTRY_CODE":"US","TLE_LINE2":"2 45578  53.0563  59.4840 0001122  73.9143 286.1969 15.06397667 96440","LAUNCH_DATE":"2020-04-22","GP_ID":"193556184","ECCENTRICITY":"0.00011220","INCLINATION":"53.0563","SITE":"AFETR","MEAN_ELEMENT_THEORY":"SGP4","PERIAPSIS":"546.444","TLE_LINE1":"1 45578U 20025AZ  22009.84381763 -.00000115  00000-0  11156-4 0  9997","MEAN_MOTION":"15.06397667","EPHEMERIS_TYPE":"0","RA_OF_ASC_NODE":"59.4840","MEAN_MOTION_DDOT":"0.0000000000000","OBJECT_NAME":"STARLINK-1331","TIME_SYSTEM":"UTC","FILE":"3268323","ELEMENT_SET_NO":"999","NORAD_CAT_ID":"45578","BSTAR":"0.00001115600000","REV_AT_EPOCH":"9644"},{"TLE_LINE2":"2 45579  53.0551  21.2916 0002100 183.1963 176.9013 15.06397007 96938","COUNTRY_CODE":"US","REF_FRAME":"TEME","SEMIMAJOR_AXIS":"6925.358","CLASSIFICATION_TYPE":"U","ARG_OF_PERICENTER":"183.1963","EPOCH":"2022-01-09T10:29:53.647008","MEAN_ANOMALY":"176.9013","APOAPSIS":"548.677","OBJECT_TYPE":"PAYLOAD","DECAY_DATE":null,"MEAN_MOTION_DOT":"0.00001837","OBJECT_ID":"2020-025BA","CENTER_NAME":"EARTH","RCS_SIZE":"LARGE","PERIOD":"95.592","REV_AT_EPOCH":"9693","NORAD_CAT_ID":"45579","BSTAR":"0.00014223000000","TIME_SYSTEM":"UTC","FILE":"3268062","ELEMENT_SET_NO":"999","RA_OF_ASC_NODE":"21.2916","MEAN_MOTION_DDOT":"0.0000000000000","OBJECT_NAME":"STARLINK-1332","PERIAPSIS":"545.768","TLE_LINE1":"1 45579U 20025BA  22009.43742647  .00001837  00000-0  14223-3 0  9993","MEAN_MOTION":"15.06397007","EPHEMERIS_TYPE":"0","ECCENTRICITY":"0.00021000","SITE":"AFETR","INCLINATION":"53.0551","MEAN_ELEMENT_THEORY":"SGP4","LAUNCH_DATE":"2020-04-22","GP_ID":"193525835"},{"MEAN_ELEMENT_THEORY":"SGP4","SITE":"AFETR","INCLINATION":"53.0549","ECCENTRICITY":"0.00011380","GP_ID":"193556669","LAUNCH_DATE":"2020-04-22","EPHEMERIS_TYPE":"0","MEAN_MOTION":"15.06406061","TLE_LINE1":"1 45580U 20025BB  22009.85026607  .00002511  00000-0  18736-3 0  9995","PERIAPSIS":"546.407","FILE":"3268323","ELEMENT_SET_NO":"999","TIME_SYSTEM":"UTC","OBJECT_NAME":"STARLINK-1333","MEAN_MOTION_DDOT":"0.0000000000000","RA_OF_ASC_NODE":"69.4396","REV_AT_EPOCH":"9629","BSTAR":"0.00018736000000","NORAD_CAT_ID":"45580","DECAY_DATE":null,"MEAN_MOTION_DOT":"0.00002511","RCS_SIZE":"LARGE","PERIOD":"95.592","CENTER_NAME":"EARTH","OBJECT_ID":"2020-025BB","EPOCH":"2022-01-09T20:24:22.988448","ARG_OF_PERICENTER":"79.8989","OBJECT_TYPE":"PAYLOAD","APOAPSIS":"547.983","MEAN_ANOMALY":"280.2128","SEMIMAJOR_AXIS":"6925.330","REF_FRAME":"TEME","CLASSIFICATION_TYPE":"U","TLE_LINE2":"2 45580  53.0549  69.4396 0001138  79.8989 280.2128 15.06406061 96298","COUNTRY_CODE":"US"},{"ELEMENT_SET_NO":"999","FILE":"3268323","TIME_SYSTEM":"UTC","MEAN_MOTION_DDOT":"0.0000000000000","RA_OF_ASC_NODE":"59.4230","OBJECT_NAME":"STARLINK-1335","REV_AT_EPOCH":"9643","BSTAR":"0.00011936000000","NORAD_CAT_ID":"45581","ECCENTRICITY":"0.00013310","MEAN_ELEMENT_THEORY":"SGP4","SITE":"AFETR","INCLINATION":"53.0550","LAUNCH_DATE":"2020-04-22","GP_ID":"193555435","TLE_LINE1":"1 45581U 20025BC  22009.85487649  .00001497  00000-0  11936-3 0  9990","PERIAPSIS":"546.297","EPHEMERIS_TYPE":"0","MEAN_MOTION":"15.06398225","SEMIMAJOR_AXIS":"6925.354","REF_FRAME":"TEME","CLASSIFICATION_TYPE":"U","TLE_LINE2":"2 45581  53.0550  59.4230 0001331  79.1648 280.9491 15.06398225 96435","COUNTRY_CODE":"US","DECAY_DATE":null,"MEAN_MOTION_DOT":"0.00001497","OBJECT_ID":"2020-025BC","PERIOD":"95.592","RCS_SIZE":"LARGE","CENTER_NAME":"EARTH","ARG_OF_PERICENTER":"79.1648","EPOCH":"2022-01-09T20:31:01.328736","MEAN_ANOMALY":"280.9491","OBJECT_TYPE":"PAYLOAD","APOAPSIS":"548.141"},{"COUNTRY_CODE":"US","TLE_LINE2":"2 45582  53.0531  60.8112 0001389  75.6938 284.4205 15.06402219 96381","CLASSIFICATION_TYPE":"U","REF_FRAME":"TEME","SEMIMAJOR_AXIS":"6925.342","MEAN_ANOMALY":"284.4205","APOAPSIS":"548.169","OBJECT_TYPE":"PAYLOAD","ARG_OF_PERICENTER":"75.6938","EPOCH":"2022-01-09T13:05:11.103360","OBJECT_ID":"2020-025BD","RCS_SIZE":"LARGE","PERIOD":"95.592","CENTER_NAME":"EARTH","DECAY_DATE":null,"MEAN_MOTION_DOT":"0.00004269","NORAD_CAT_ID":"45582","BSTAR":"0.00030529000000","REV_AT_EPOCH":"9638","MEAN_MOTION_DDOT":"0.0000000000000","RA_OF_ASC_NODE":"60.8112","OBJECT_NAME":"STARLINK-1337","TIME_SYSTEM":"UTC","FILE":"3268062","ELEMENT_SET_NO":"999","PERIAPSIS":"546.245","TLE_LINE1":"1 45582U 20025BD  22009.54526740  .00004269  00000-0  30529-3 0  9992","MEAN_MOTION":"15.06402219","EPHEMERIS_TYPE":"0","LAUNCH_DATE":"2020-04-22","GP_ID":"193525583","ECCENTRICITY":"0.00013890","INCLINATION":"53.0531","SITE":"AFETR","MEAN_ELEMENT_THEORY":"SGP4"},{"OBJECT_NAME":"STARLINK-1340","MEAN_MOTION_DDOT":"0.0000000000000","RA_OF_ASC_NODE":"59.4019","FILE":"3268323","ELEMENT_SET_NO":"999","TIME_SYSTEM":"UTC","NORAD_CAT_ID":"45583","BSTAR":"0.00017130000000","REV_AT_EPOCH":"9643","GP_ID":"193556437","LAUNCH_DATE":"2020-04-22","INCLINATION":"53.0548","SITE":"AFETR","MEAN_ELEMENT_THEORY":"SGP4","ECCENTRICITY":"0.00015920","MEAN_MOTION":"15.06412030","EPHEMERIS_TYPE":"0","PERIAPSIS":"546.074","TLE_LINE1":"1 45583U 20025BE  22009.85855092  .00002272  00000-0  17130-3 0  9997","CLASSIFICATION_TYPE":"U","REF_FRAME":"TEME","SEMIMAJOR_AXIS":"6925.312","COUNTRY_CODE":"US","TLE_LINE2":"2 45583  53.0548  59.4019 0001592  60.8498 299.2650 15.06412030 96439","RCS_SIZE":"LARGE","PERIOD":"95.591","CENTER_NAME":"EARTH","OBJECT_ID":"2020-025BE","MEAN_MOTION_DOT":"0.00002272","DECAY_DATE":null,"APOAPSIS":"548.279","OBJECT_TYPE":"PAYLOAD","MEAN_ANOMALY":"299.2650","EPOCH":"2022-01-09T20:36:18.799488","ARG_OF_PERICENTER":"60.8498"},{"FILE":"3268062","TIME_SYSTEM":"UTC","ELEMENT_SET_NO":"999","OBJECT_NAME":"STARLINK-1343","MEAN_MOTION_DDOT":"0.0000000000000","RA_OF_ASC_NODE":"61.2328","REV_AT_EPOCH":"9637","NORAD_CAT_ID":"45584","BSTAR":"0.00012271000000","INCLINATION":"53.0549","SITE":"AFETR","MEAN_ELEMENT_THEORY":"SGP4","ECCENTRICITY":"0.00010380","GP_ID":"193526585","LAUNCH_DATE":"2020-04-22","MEAN_MOTION":"15.06394998","EPHEMERIS_TYPE":"0","TLE_LINE1":"1 45584U 20025BF  22009.44942569  .00001547  00000-0  12271-3 0  9994","PERIAPSIS":"546.510","REF_FRAME":"TEME","SEMIMAJOR_AXIS":"6925.364","CLASSIFICATION_TYPE":"U","TLE_LINE2":"2 45584  53.0549  61.2328 0001038  98.0236 262.0870 15.06394998 96370","COUNTRY_CODE":"US","DECAY_DATE":null,"MEAN_MOTION_DOT":"0.00001547","RCS_SIZE":"LARGE","CENTER_NAME":"EARTH","PERIOD":"95.592","OBJECT_ID":"2020-025BF","EPOCH":"2022-01-09T10:47:10.379616","ARG_OF_PERICENTER":"98.0236","APOAPSIS":"547.948","OBJECT_TYPE":"PAYLOAD","MEAN_ANOMALY":"262.0870"},{"FILE":"3268323","ELEMENT_SET_NO":"999","TIME_SYSTEM":"UTC","MEAN_MOTION_DDOT":"0.0000000000000","RA_OF_ASC_NODE":"59.3513","OBJECT_NAME":"STARLINK-1347","REV_AT_EPOCH":"9642","BSTAR":"0.00005576300000","NORAD_CAT_ID":"45586","ECCENTRICITY":"0.00013330","MEAN_ELEMENT_THEORY":"SGP4","SITE":"AFETR","INCLINATION":"53.0566","LAUNCH_DATE":"2020-04-22","GP_ID":"193555935","TLE_LINE1":"1 45586U 20025BH  22009.86961487  .00000549  00000-0  55763-4 0  9997","PERIAPSIS":"546.273","EPHEMERIS_TYPE":"0","MEAN_MOTION":"15.06405692","SEMIMAJOR_AXIS":"6925.331","REF_FRAME":"TEME","CLASSIFICATION_TYPE":"U","TLE_LINE2":"2 45586  53.0566  59.3513 0001333  67.8498 292.2633 15.06405692 96429","COUNTRY_CODE":"US","MEAN_MOTION_DOT":"0.00000549","DECAY_DATE":null,"OBJECT_ID":"2020-025BH","CENTER_NAME":"EARTH","RCS_SIZE":"LARGE","PERIOD":"95.592","ARG_OF_PERICENTER":"67.8498","EPOCH":"2022-01-09T20:52:14.724768","MEAN_ANOMALY":"292.2633","OBJECT_TYPE":"PAYLOAD","APOAPSIS":"548.119"}];
